[{"OBJECT_NAME":"STARLINK-1559","OBJECT_ID":"2020-055BC","EPOCH":"2026-03-09T05:36:23.522976","MEAN_MOTION":15.29461733,"ECCENTRICITY":0.0004229,"INCLINATION":53.0254,"RA_OF_ASC_NODE":76.0659,"ARG_OF_PERICENTER":33.971,"MEAN_ANOMALY":326.1559,"EPHEMERIS_TYPE":0,"CLASSIFICATION_TYPE":"U","NORAD_CAT_ID":46077,"ELEMENT_SET_NO":999,"REV_AT_EPOCH":30951,"BSTAR":0.0014778793,"MEAN_MOTION_DOT":0.00042685,"MEAN_MOTION_DDOT":0},{"OBJECT_NAME":"STARLINK-33665","OBJECT_ID":"2025-053S","EPOCH":"2026-03-09T12:31:16.520736","MEAN_MOTION":15.2761666,"ECCENTRICITY":0.00016639,"INCLINATION":43.0015,"RA_OF_ASC_NODE":242.2115,"ARG_OF_PERICENTER":260.9739,"MEAN_ANOMALY":99.0924,"EPHEMERIS_TYPE":0,"CLASSIFICATION_TYPE":"U","NORAD_CAT_ID":63281,"ELEMENT_SET_NO":999,"REV_AT_EPOCH":5617,"BSTAR":0.00075891861,"MEAN_MOTION_DOT":0.00020704,"MEAN_MOTION_DDOT":0}]
